#aV2010  1 20  0  0   .00000000      96 DD+AD WGS84 FIT  NGA
## 1567 259200.00000000   900.00000000 55216  .0000000000000
+   32     1  2  3  4  5  6  7  8  9 10 11 12 13 14 15 16 17
+         18 19 20 21 22 23 24 25 26 27 28 29 30 31 32  0  0
+          0  0  0  0  0  0  0  0  0  0  0  0  0  0  0  0  0
+          0  0  0  0  0  0  0  0  0  0  0  0  0  0  0  0  0
+          0  0  0  0  0  0  0  0  0  0  0  0  0  0  0  0  0
++         0  0  0  0  0  0  0  0  0  0  0  0  0  0  0  0  0
++         0  0  0  0  0  0  0  0  0  0  0  0  0  0  0  0  0
++         0  0  0  0  0  0  0  0  0  0  0  0  0  0  0  0  0
++         0  0  0  0  0  0  0  0  0  0  0  0  0  0  0  0  0
++         0  0  0  0  0  0  0  0  0  0  0  0  0  0  0  0  0
%c cc cc ccc ccc cccc cccc cccc cccc ccccc ccccc ccccc ccccc
%c cc cc ccc ccc cccc cccc cccc cccc ccccc ccccc ccccc ccccc
%f  0.0000000  0.000000000  0.00000000000  0.000000000000000
%f  0.0000000  0.000000000  0.00000000000  0.000000000000000
%i    0    0    0    0      0      0      0      0         0
%i    0    0    0    0      0      0      0      0         0
/*      NGA, ST. LOUIS,MO.                                  
/*   EPHEMERIS COMPUTED FROM  3 DAYS OF DATA                
/* CCCCCCCCCCCCCCCCCCCCCCCCCCCCCCCCCCCCCCCCCCCCCCCCCCCCCCCCC
/* CCCCCCCCCCCCCCCCCCCCCCCCCCCCCCCCCCCCCCCCCCCCCCCCCCCCCCCCC
*  2010  1 20  1 45   .00000000                                                 
P  1  18902.227748 -15197.605687  10593.947385    -81.070904                    
V  1  -5448.512054  12746.669644  27852.661312      -.034423                    
P  2  13864.654342  22779.873807  -2740.991245    217.425069                    
V  2  -1199.475514   4400.375690  30747.023122       .042640                    
P  3 -18143.627973 -11319.265467 -16314.610165    504.369090                    
V  3  19900.672176  -3232.926316 -19983.966571       .052110                    
P  4   4203.227204  24241.035642   9350.680620   -466.286548                    
V  4  -8503.035400  -9497.099630  28309.684575      -.192324                    
P  5   9010.876415  13238.298281 -21194.175597    -15.045745                    
V  5 -15472.289331  22000.323004   7253.109621       .035974                    
P  6 -14487.474281 -13336.200581 -17696.274768    258.780074                    
V  6  22903.792476  -1599.500267 -17257.951619      -.030025                    
P  7 -11726.485317   9857.439382 -21690.021121      4.071582                    
V  7 -12464.430831 -24529.254572  -4561.485637      -.005949                    
P  8  -3600.323680  20075.050790 -16735.070078      2.343372                    
V  8  -9515.180599 -19182.063119 -21494.028142       .004394                    
P  9  17773.859054  10195.169356  16262.163881    101.013443                    
V  9   8756.352841  20092.012863 -21271.080528       .022784                    
P 10   4194.962675  17781.946369 -19327.455793    -33.287387                    
V 10 -15245.421811  18992.460287  14639.815288      -.009896                    
P 11 -20418.939954  -3863.258420  16472.769624    -40.662373                    
V 11 -11377.978240 -18508.501174 -17799.059177      -.020684                    
P 12  18113.591949  -3225.282211  19162.881308   -160.865713                    
V 12 -12594.056467  20743.404024  15573.351595       .048980                    
P 13 -21753.350745   6311.041380 -14008.554585    306.662936                    
V 13 -17183.247354  -3611.244370  25273.806186       .000160                    
P 14   5471.921113 -14014.276355  22015.355054      2.062835                    
V 14  27352.238134   3374.848941  -4796.129281       .044354                    
P 15  23811.467792   7642.009985  -9077.970830   -312.394375                    
V 15 -11660.098974   2061.431662 -28662.744174       .022778                    
P 16  -2711.876073 -18415.292894 -18796.444407    -32.405456                    
V 16  15053.952123 -18787.943602  16442.661741      -.041094                    
P 17  -3762.850423  14922.764665  21716.035129    122.645183                    
V 17 -27260.627027  -2754.650674  -3046.903739       .032337                    
P 18  17586.666897 -19027.617963  -4598.553785     43.076608                    
V 18   -518.844077   7271.290384 -30766.175862       .026137                    
P 19 -24226.224425  -8609.751356  -7201.762664    -10.611160                    
V 19   9390.939879  -1196.667783 -29728.316893      -.022084                    
P 20 -19166.109203   7766.268849  16501.298290     62.991096                    
V 20   9395.486768 -19248.162630  19867.801968      -.007868                    
P 21   9449.708347 -14356.707846 -19793.509325    -35.123305                    
V 21  12641.271026  22857.289095 -11011.713738      -.024618                    
P 22  10485.395182 -23402.334880   6921.126177    181.114650                    
V 22   7806.215459  -5027.626221 -29584.188088      -.010172                    
P 23 -26523.603045    299.102018  -3296.094068    381.954452                    
V 23  -3933.597288  -2565.786522  31380.524208      -.008729                    
P 24  16095.283327   -653.694801 -21005.063138    255.233568                    
V 24   9874.307624  25077.122312   7008.095154       .031913                    
P 25 -14832.412591   3679.403548 -21355.643439     82.868691                    
V 25 -14093.038525 -24121.424859   5734.557400       .078585                    
P 26  15984.177876 -10023.316083  18344.737151    -11.050875                    
V 26  23871.724484   4009.378718 -17634.452166      -.031128                    
P 27  18654.748148  11842.038060  15501.974407    118.686076                    
V 27   7778.474720  16712.324382 -23087.342798       .032928                    
P 28 -12212.581401  22936.413466   5085.957996    -23.396799                    
V 28  -5642.741340   3238.135135 -31267.641427       .004444                    
P 29  24029.454514  -4794.627631 -10119.583837     91.305176                    
V 29  12687.114764   3786.997605  28116.006640       .028774                    
P 30  18665.724977 -14075.580114  12168.644055    212.154205                    
V 30  -6126.947704  15115.315598  26112.318988       .033166                    
P 31  -6062.933089 -24589.709159   7937.961740    -54.743397                    
V 31   6372.350787   7803.528693  30014.142425       .013972                    
P 32 -16389.843610  -2996.153118  20975.258341    113.288559                    
V 32  15480.327303 -20772.688991   9604.179385      -.080967                    
EOF
